[{"OBJECT_NAME":"GHGSAT-C4","OBJECT_ID":"2022-057Q","EPOCH":"2026-03-09T22:58:28.655904","MEAN_MOTION":15.3293316,"ECCENTRICITY":0.0007552,"INCLINATION":97.6357,"RA_OF_ASC_NODE":210.0193,"ARG_OF_PERICENTER":100.0033,"MEAN_ANOMALY":260.2061,"EPHEMERIS_TYPE":0,"CLASSIFICATION_TYPE":"U","NORAD_CAT_ID":52746,"ELEMENT_SET_NO":999,"REV_AT_EPOCH":21033,"BSTAR":0.00030289005,"MEAN_MOTION_DOT":9.562e-5,"MEAN_MOTION_DDOT":0},{"OBJECT_NAME":"STARLINK-33825","OBJECT_ID":"2025-071N","EPOCH":"2026-03-09T11:53:26.907648","MEAN_MOTION":15.30183313,"ECCENTRICITY":0.00011517,"INCLINATION":53.158,"RA_OF_ASC_NODE":140.5753,"ARG_OF_PERICENTER":70.5737,"MEAN_ANOMALY":289.5389,"EPHEMERIS_TYPE":0,"CLASSIFICATION_TYPE":"U","NORAD_CAT_ID":63505,"ELEMENT_SET_NO":999,"REV_AT_EPOCH":5274,"BSTAR":0.0009884417,"MEAN_MOTION_DOT":0.00029015,"MEAN_MOTION_DDOT":0}]
